GSAT0201 (GALILEO 5)    
1 40128U 14050A   24016.55246535 -.00000089  00000+0  00000+0 0  9999
2 40128  49.8088 309.1937 1605672 145.4042 226.1991  1.85519388 61941
GSAT0202 (GALILEO 6)    
1 40129U 14050B   24015.19438120 -.00000075  00000+0  00000+0 0  9997
2 40129  49.8284 308.3224 1603933 146.1614 225.2208  1.85520040 64087
IRNSS-1C                
1 40269U 14061A   24017.32617130 -.00000158  00000+0  00000+0 0  9993
2 40269   4.2946 108.7889 0017463   3.1505 204.6579  1.00268231 33848
NAVSTAR 72 (USA 258)    
1 40294U 14068A   24016.93265074 -.00000055  00000+0  00000+0 0  9996
2 40294  56.2908  65.1870 0048325  60.3627 300.1791  2.00549691 67510
COSMOS 2501             
1 40315U 14075A   24017.56254568  .00000093  00000+0  00000+0 0  9995
2 40315  63.6287 220.9501 0018014 203.4859 156.4771  2.13101270 71063
NAVSTAR 73 (USA 260)    
1 40534U 15013A   24016.57917085  .00000044  00000+0  00000+0 0  9997
2 40534  53.4027 240.7246 0086401  28.3953 332.1360  2.00574959 64125
GSAT0203 (GALILEO 7)    
1 40544U 15017A   24016.99035308 -.00000080  00000+0  00000+0 0  9998
2 40544  56.9193   5.6050 0005415 273.7559  86.1852  1.70475669 54162
GSAT0204 (GALILEO 8)    
1 40545U 15017B   24016.07117766 -.00000077  00000+0  00000+0 0  9993
2 40545  56.9256   5.6448 0004975 262.7570  97.1898  1.70475350 17196
IRNSS-1D                
1 40547U 15018A   24017.57969307 -.00000265  00000+0  00000+0 0  9997
2 40547  27.7950 255.3211 0018688 179.2534   2.3459  1.00266089 32148
BEIDOU-3S IGSO-1S       
1 40549U 15019A   24016.79153799 -.00000189  00000+0  00000+0 0  9998
2 40549  50.8548 305.9900 0035508 195.0529 355.0076  1.00282408 32222
NAVSTAR 74 (USA 262)    
1 40730U 15033A   24017.23896326 -.00000068  00000+0  00000+0 0  9992
2 40730  54.7296 303.2482 0091374  15.9356 344.3777  2.00574906 62303
BEIDOU-3S M2S           
1 40748U 15037A   24016.03278310 -.00000083  00000+0  00000+0 0  9996
2 40748  55.5817 332.2350 0011623 263.7612  96.1062  1.86232893 57675
BEIDOU-3S M1S           
1 40749U 15037B   24015.22913136 -.00000078  00000+0  00000+0 0  9993
2 40749  55.5856 332.2488 0006932 323.2390  36.7127  1.86232794 57664
GSAT0205 (GALILEO 9)    
1 40889U 15045A   24015.25324765  .00000048  00000+0  00000+0 0  9990
2 40889  55.2915 246.0244 0006120  33.4886 326.6295  1.70473178 51941
GSAT0206 (GALILEO 10)   
1 40890U 15045B   24017.23364819  .00000044  00000+0  00000+0 0  9992
2 40890  55.2899 245.9648 0004319  36.3066 323.7927  1.70473126 52001
BEIDOU-3S IGSO-2S       
1 40938U 15053A   24017.60469617 -.00000107  00000+0  00000+0 0  9998
2 40938  50.5932 269.1737 0046153 191.7705 325.9662  1.00252427 30519
NAVSTAR 75 (USA 265)    
1 41019U 15062A   24016.29328272 -.00000050  00000+0  00000+0 0  9991
2 41019  56.2726  65.0642 0094364 223.9778 135.3288  2.00562178 60122
GSAT-15                 
1 41028U 15065A   24017.54314997 -.00000253  00000+0  00000+0 0  9997
2 41028   0.0990 267.0605 0002001 341.3506 157.0369  1.00271117 29952
GSAT0209 (GALILEO 12)   
1 41174U 15079A   24017.40398910 -.00000004  00000+0  00000+0 0  9990
2 41174  55.3583 125.4870 0002525 308.8722  51.0950  1.70474737 49743
GSAT0208 (GALILEO 11)   
1 41175U 15079B   24017.62367043 -.00000006  00000+0  00000+0 0  9990
2 41175  55.3568 125.4789 0004081 291.9180  68.0278  1.70474174 50169
IRNSS-1E                
1 41241U 16003A   24017.63391512 -.00000312  00000+0  00000+0 0  9991
2 41241  31.2859  75.7540 0021833 189.4836 191.3618  1.00275059 29241
NAVSTAR 76 (USA 266)    
1 41328U 16007A   24017.37457100  .00000004  00000+0  00000+0 0  9995
2 41328  55.0664 124.4845 0076010 235.1971 124.0853  2.00569118 58150
COSMOS 2514             
1 41330U 16008A   24016.60566678 -.00000057  00000+0  00000+0 0  9994
2 41330  65.4630 343.1235 0010669 225.7432 134.1684  2.13102456 61812
IRNSS-1F                
1 41384U 16015A   24017.53096677  .00000162  00000+0  00000+0 0  9997
2 41384   3.2239 123.7704 0021492 184.5128  31.7695  1.00266074 28829
BEIDOU-2 IGSO-6         
1 41434U 16021A   24017.54323698 -.00000145  00000+0  00000+0 0  9999
2 41434  58.9477  46.8823 0049541 225.2962 133.0614  1.00256626 28635
IRNSS-1G                
1 41469U 16027A   24017.64730260 -.00000332  00000+0  00000+0 0  9999
2 41469   3.1081 125.1642 0003734 273.1013  80.7512  1.00277550 28330
GSAT0211 (GALILEO 14)   
1 41549U 16030A   24015.98620147  .00000046  00000+0  00000+0 0  9990
2 41549  55.4376 245.9943 0004256  11.6001 348.4847  1.70473074 47616
GSAT0210 (GALILEO 13)   
1 41550U 16030B   24016.27748585  .00000045  00000+0  00000+0 0  9991
2 41550  55.4370 245.9872 0002096 347.7069  12.3614  1.70473441 47617
COSMOS 2516             
1 41554U 16032A   24017.18615308  .00000089  00000+0  00000+0 0  9992
2 41554  63.8558 221.4019 0014696 210.5184 149.4420  2.13106350 59438
BEIDOU-2 G7             
1 41586U 16037A   24017.63334675 -.00000351  00000+0  00000+0 0  9990
2 41586   1.5449  67.2426 0009251 315.7122  72.1452  1.00273429 27956
EUTELSAT 117 WEST B     
1 41589U 16038B   24017.50572883 -.00000007  00000+0  00000+0 0  9993
2 41589   0.0055 208.3325 0000191 149.3108 183.8312  1.00273014 27822
GSAT0207 (GALILEO 15)   
1 41859U 16069A   24014.76483324  .00000009  00000+0  00000+0 0  9994
2 41859  55.0211 125.5990 0002895 286.0583  73.8969  1.70474501 44324
GSAT0212 (GALILEO 16)   
1 41860U 16069B   24014.03273339  .00000009  00000+0  00000+0 0  9999
2 41860  55.0184 125.6160 0001359 330.0863  29.8893  1.70474767 44567
GSAT0213 (GALILEO 17)   
1 41861U 16069C   24017.33279537 -.00000004  00000+0  00000+0 0  9998
2 41861  55.0218 125.5306 0003545 259.7520 100.1977  1.70473413 44487
GSAT0214 (GALILEO 18)   
1 41862U 16069D   24017.47946158 -.00000005  00000+0  00000+0 0  9995
2 41862  55.0205 125.5204 0002397 255.5205 104.4422  1.70474930 44611
SES-15                  
1 42709U 17026A   24017.41016473  .00000063  00000+0  00000+0 0  9995
2 42709   0.0184  34.4795 0000807 261.3118 199.0294  1.00278974 25308
QZS-2 (MICHIBIKI-2)     
1 42738U 17028A   24017.52063242 -.00000129  00000+0  00000+0 0  9991
2 42738  40.8181 255.9295 0753476 269.8054 279.8814  1.00276453 24295
QZS-3 (MICHIBIKI-3)     
1 42917U 17048A   24017.64573543 -.00000344  00000+0  00000+0 0  9994
2 42917   0.0659 218.4446 0002640  82.1532 175.4568  1.00271024 23421
COSMOS 2522             
1 42939U 17055A   24015.97766205  .00000081  00000+0  00000+0 0  9996
2 42939  64.0894 222.0081 0005249 230.9493 129.0525  2.13101876 49157
QZS-4 (MICHIBIKI-4)     
1 42965U 17062A   24016.39006087 -.00000334  00000+0  00000+0 0  9997
2 42965  40.5812 354.7299 0751595 268.6379 128.9925  1.00296750 22965
BEIDOU-3 M1             
1 43001U 17069A   24015.84407074 -.00000024  00000+0  00000+0 0  9992
2 43001  55.9425  92.3696 0010356 290.7660  69.1720  1.86231080 42156
BEIDOU-3 M2             
1 43002U 17069B   24015.78101966 -.00000023  00000+0  00000+0 0  9996
2 43002  55.9417  92.4079 0007593 311.9050  48.0794  1.86230947 42149
GSAT0215 (GALILEO 19)   
1 43055U 17079A   24015.03583220  .00000050  00000+0  00000+0 0  9999
2 43055  55.4156 245.8444 0001613 348.5109  11.5664  1.70473904 37915
GSAT0216 (GALILEO 20)   
1 43056U 17079B   24015.91422878  .00000046  00000+0  00000+0 0  9993
2 43056  55.4148 245.8200 0002708 322.2268  37.8295  1.70474052 37947
GSAT0217 (GALILEO 21)   
1 43057U 17079C   24016.72121848  .00000045  00000+0  00000+0 0  9996
2 43057  55.4125 245.7966 0003000 344.3446  15.7176  1.70473933 37940
GSAT0218 (GALILEO 22)   
1 43058U 17079D   24016.94124634  .00000045  00000+0  00000+0 0  9997
2 43058  55.4125 245.7881 0002817 312.7722  47.2749  1.70474030 37976
BEIDOU-3 M7             
1 43107U 18003A   24016.06805389 -.00000084  00000+0  00000+0 0  9990
2 43107  55.0391 332.8917 0003626  45.3503 314.6787  1.86232198 40909
BEIDOU-3 M8             
1 43108U 18003B   24016.54420013 -.00000087  00000+0  00000+0 0  9994
2 43108  55.0318 332.8616 0004529 274.3206  85.6270  1.86230698 40929
BEIDOU-3 M4             
1 43207U 18018A   24015.37515946 -.00000019  00000+0  00000+0 0  9995
2 43207  55.9010  92.4798 0004369 336.5421  23.4878  1.86231012 40283
BEIDOU-3 M3             
1 43208U 18018B   24017.05261880 -.00000039  00000+0  00000+0 0  9990
2 43208  55.9016  92.4278 0007851 300.0201  59.9469  1.86231214 40312
BEIDOU-3 M9             
1 43245U 18029A   24016.20087517 -.00000084  00000+0  00000+0 0  9992
2 43245  54.9282 330.6090 0001891 298.0050  61.9767  1.86232197 39450
BEIDOU-3 M10            
1 43246U 18029B   24016.13072834 -.00000084  00000+0  00000+0 0  9991
2 43246  54.9252 330.6400 0004803 350.2866   9.7049  1.86232553 39432
IRNSS-1I                
1 43286U 18035A   24016.76160203  .00000077  00000+0  00000+0 0  9990
2 43286  28.7553  88.0530 0021409 185.4237 171.4040  1.00271770 21224
COSMOS 2527             
1 43508U 18053A   24015.46716116  .00000005  00000+0  00000+0 0  9994
2 43508  65.1415 103.4839 0009216 229.6037 130.3582  2.13102252 43444
BEIDOU-2 IGSO-7         
1 43539U 18057A   24010.86206958 -.00000075  00000+0  00000+0 0  9997
2 43539  55.1290 170.7303 0064938 228.9651 129.2611  1.00244014 20237
GSAT0221 (GALILEO 25)   
1 43564U 18060A   24015.66762687 -.00000075  00000+0  00000+0 0  9998
2 43564  57.3000   5.6028 0005940 286.3331  73.6049  1.70475509 34109
GSAT0222 (GALILEO 26)   
1 43565U 18060B   24016.47248843 -.00000078  00000+0  00000+0 0  9995
2 43565  57.3031   5.5824 0004904 263.9838  95.9633  1.70475262 34167
GSAT0219 (GALILEO 23)   
1 43566U 18060C   24017.28121034 -.00000080  00000+0  00000+0 0  9991
2 43566  57.3022   5.5627 0005225 293.2483  66.6996  1.70475500 34159
GSAT0220 (GALILEO 24)   
1 43567U 18060D   24015.15537622 -.00000073  00000+0  00000+0 0  9992
2 43567  57.3017   5.6200 0005382 287.6536  72.2914  1.70475219 34107
BEIDOU-3 M5             
1 43581U 18062A   24016.88861489  .00000093  00000+0  00000+0 0  9993
2 43581  54.1537 212.3225 0001667 350.8479   9.1737  1.86228472 37200
